{"type": "FeatureCollection", "features": [{"type": "Feature", "properties": {"norad_id": 25590, "name": "COSMOS 2361", "group": "musson", "lat": 38.49020582305203, "lon": 151.3980654079671, "alt_km": 987.7902457234759, "timestamp": "2025-12-22T05:49:03.769210+00:00", "meta": {"OBJECT_NAME": "COSMOS 2361", "OBJECT_ID": "1998-076A", "EPOCH": "2025-12-21T17:44:02.812416", "MEAN_MOTION": 13.73218504, "ECCENTRICITY": 0.0030205, "INCLINATION": 82.9342, "RA_OF_ASC_NODE": 337.43, "ARG_OF_PERICENTER": 239.5294, "MEAN_ANOMALY": 294.2766, "EPHEMERIS_TYPE": 0, "CLASSIFICATION_TYPE": "U", "NORAD_CAT_ID": 25590, "ELEMENT_SET_NO": 999, "REV_AT_EPOCH": 35234, "BSTAR": 3.8572e-05, "MEAN_MOTION_DOT": 5.1e-07, "MEAN_MOTION_DDOT": 0}, "tle": {"line1": "1 25590U 98076A   25355.73892144  .00000051  00000+0  38572-4 0  9993", "line2": "2 25590  82.9342 337.4300 0030205 239.5294 294.2766 13.73218504352342"}}, "geometry": {"type": "Point", "coordinates": [151.3980654079671, 38.49020582305203]}}, {"type": "Feature", "properties": {"norad_id": 26818, "name": "COSMOS 2378", "group": "musson", "lat": -65.06804319500091, "lon": -171.83128990298363, "alt_km": 982.7152193994152, "timestamp": "2025-12-22T05:49:03.769232+00:00", "meta": {"OBJECT_NAME": "COSMOS 2378", "OBJECT_ID": "2001-023A", "EPOCH": "2025-12-21T18:59:06.942048", "MEAN_MOTION": 13.74142656, "ECCENTRICITY": 0.0032963, "INCLINATION": 82.927, "RA_OF_ASC_NODE": 353.0129, "ARG_OF_PERICENTER": 179.4605, "MEAN_ANOMALY": 354.6275, "EPHEMERIS_TYPE": 0, "CLASSIFICATION_TYPE": "U", "NORAD_CAT_ID": 26818, "ELEMENT_SET_NO": 999, "REV_AT_EPOCH": 23047, "BSTAR": 2.1724e-05, "MEAN_MOTION_DOT": 3.6e-07, "MEAN_MOTION_DDOT": 0}, "tle": {"line1": "1 26818U 01023A   25355.79105257  .00000036  00000+0  21724-4 0  9995", "line2": "2 26818  82.9270 353.0129 0032963 179.4605 354.6275 13.74142656230470"}}, "geometry": {"type": "Point", "coordinates": [-171.83128990298363, -65.06804319500091]}}, {"type": "Feature", "properties": {"norad_id": 27436, "name": "COSMOS 2389", "group": "musson", "lat": 51.70109201733021, "lon": 110.93643733219213, "alt_km": 977.8830693156006, "timestamp": "2025-12-22T05:49:03.769246+00:00", "meta": {"OBJECT_NAME": "COSMOS 2389", "OBJECT_ID": "2002-026A", "EPOCH": "2025-12-21T19:02:11.881248", "MEAN_MOTION": 13.75155504, "ECCENTRICITY": 0.0047258, "INCLINATION": 82.951, "RA_OF_ASC_NODE": 300.2827, "ARG_OF_PERICENTER": 36.0662, "MEAN_ANOMALY": 28.4745, "EPHEMERIS_TYPE": 0, "CLASSIFICATION_TYPE": "U", "NORAD_CAT_ID": 27436, "ELEMENT_SET_NO": 999, "REV_AT_EPOCH": 18273, "BSTAR": 3.8977e-05, "MEAN_MOTION_DOT": 5.3e-07, "MEAN_MOTION_DDOT": 0}, "tle": {"line1": "1 27436U 02026A   25355.79319307  .00000053  00000+0  38977-4 0  9996", "line2": "2 27436  82.9510 300.2827 0047258  36.0662  28.4745 13.75155504182737"}}, "geometry": {"type": "Point", "coordinates": [110.93643733219213, 51.70109201733021]}}, {"type": "Feature", "properties": {"norad_id": 27818, "name": "COSMOS 2398", "group": "musson", "lat": -15.155635015442796, "lon": -96.22527862877492, "alt_km": 1000.4341253446682, "timestamp": "2025-12-22T05:49:03.769257+00:00", "meta": {"OBJECT_NAME": "COSMOS 2398", "OBJECT_ID": "2003-023A", "EPOCH": "2025-12-21T19:40:46.024032", "MEAN_MOTION": 13.72386608, "ECCENTRICITY": 0.0032718, "INCLINATION": 82.9484, "RA_OF_ASC_NODE": 266.0072, "ARG_OF_PERICENTER": 87.607, "MEAN_ANOMALY": 331.7317, "EPHEMERIS_TYPE": 0, "CLASSIFICATION_TYPE": "U", "NORAD_CAT_ID": 27818, "ELEMENT_SET_NO": 999, "REV_AT_EPOCH": 12941, "BSTAR": 6.0232e-05, "MEAN_MOTION_DOT": 7.1e-07, "MEAN_MOTION_DDOT": 0}, "tle": {"line1": "1 27818U 03023A   25355.81997713  .00000071  00000+0  60232-4 0  9993", "line2": "2 27818  82.9484 266.0072 0032718  87.6070 331.7317 13.72386608129411"}}, "geometry": {"type": "Point", "coordinates": [-96.22527862877492, -15.155635015442796]}}, {"type": "Feature", "properties": {"norad_id": 28380, "name": "COSMOS 2407", "group": "musson", "lat": -44.96177848967252, "lon": -161.2321216012224, "alt_km": 975.5787372821515, "timestamp": "2025-12-22T05:49:03.769268+00:00", "meta": {"OBJECT_NAME": "COSMOS 2407", "OBJECT_ID": "2004-028A", "EPOCH": "2025-12-21T14:24:34.609248", "MEAN_MOTION": 13.76314649, "ECCENTRICITY": 0.0039921, "INCLINATION": 82.9597, "RA_OF_ASC_NODE": 206.3322, "ARG_OF_PERICENTER": 30.6809, "MEAN_ANOMALY": 345.284, "EPHEMERIS_TYPE": 0, "CLASSIFICATION_TYPE": "U", "NORAD_CAT_ID": 28380, "ELEMENT_SET_NO": 999, "REV_AT_EPOCH": 7545, "BSTAR": 4.7774e-05, "MEAN_MOTION_DOT": 6.2e-07, "MEAN_MOTION_DDOT": 0}, "tle": {"line1": "1 28380U 04028A   25355.60040057  .00000062  00000+0  47774-4 0  9997", "line2": "2 28380  82.9597 206.3322 0039921  30.6809 345.2840 13.76314649 75452"}}, "geometry": {"type": "Point", "coordinates": [-161.2321216012224, -44.96177848967252]}}, {"type": "Feature", "properties": {"norad_id": 28521, "name": "COSMOS 2414", "group": "musson", "lat": -73.32857777563389, "lon": 21.885644133340055, "alt_km": 966.9432669397611, "timestamp": "2025-12-22T05:49:03.769279+00:00", "meta": {"OBJECT_NAME": "COSMOS 2414", "OBJECT_ID": "2005-002A", "EPOCH": "2025-12-21T18:12:56.748096", "MEAN_MOTION": 13.87904162, "ECCENTRICITY": 0.0041318, "INCLINATION": 82.9488, "RA_OF_ASC_NODE": 177.8396, "ARG_OF_PERICENTER": 114.6334, "MEAN_ANOMALY": 245.9142, "EPHEMERIS_TYPE": 0, "CLASSIFICATION_TYPE": "U", "NORAD_CAT_ID": 28521, "ELEMENT_SET_NO": 999, "REV_AT_EPOCH": 5920, "BSTAR": 4.6064e-05, "MEAN_MOTION_DOT": 7.1e-07, "MEAN_MOTION_DDOT": 0}, "tle": {"line1": "1 28521U 05002A   25355.75899014  .00000071  00000+0  46064-4 0  9999", "line2": "2 28521  82.9488 177.8396 0041318 114.6334 245.9142 13.87904162 59203"}}, "geometry": {"type": "Point", "coordinates": [21.885644133340055, -73.32857777563389]}}, {"type": "Feature", "properties": {"norad_id": 32052, "name": "COSMOS 2429", "group": "musson", "lat": -47.201835085835846, "lon": -31.34289152902132, "alt_km": 973.3025350526641, "timestamp": "2025-12-22T05:49:03.769290+00:00", "meta": {"OBJECT_NAME": "COSMOS 2429", "OBJECT_ID": "2007-038A", "EPOCH": "2025-12-21T16:04:39.938880", "MEAN_MOTION": 13.75150242, "ECCENTRICITY": 0.0038726, "INCLINATION": 82.9806, "RA_OF_ASC_NODE": 336.7252, "ARG_OF_PERICENTER": 13.345, "MEAN_ANOMALY": 346.8721, "EPHEMERIS_TYPE": 0, "CLASSIFICATION_TYPE": "U", "NORAD_CAT_ID": 32052, "ELEMENT_SET_NO": 999, "REV_AT_EPOCH": 91725, "BSTAR": 3.4528e-05, "MEAN_MOTION_DOT": 4.8e-07, "MEAN_MOTION_DDOT": 0}, "tle": {"line1": "1 32052U 07038A   25355.66990670  .00000048  00000+0  34528-4 0  9990", "line2": "2 32052  82.9806 336.7252 0038726  13.3450 346.8721 13.75150242917252"}}, "geometry": {"type": "Point", "coordinates": [-31.34289152902132, -47.201835085835846]}}, {"type": "Feature", "properties": {"norad_id": 35635, "name": "COSMOS 2454", "group": "musson", "lat": 13.584012694071971, "lon": 163.15332260031192, "alt_km": 917.6970667516471, "timestamp": "2025-12-22T05:49:03.769300+00:00", "meta": {"OBJECT_NAME": "COSMOS 2454", "OBJECT_ID": "2009-039A", "EPOCH": "2025-12-21T19:57:28.639008", "MEAN_MOTION": 13.8992963, "ECCENTRICITY": 0.0020168, "INCLINATION": 82.9556, "RA_OF_ASC_NODE": 161.7527, "ARG_OF_PERICENTER": 49.3294, "MEAN_ANOMALY": 70.121, "EPHEMERIS_TYPE": 0, "CLASSIFICATION_TYPE": "U", "NORAD_CAT_ID": 35635, "ELEMENT_SET_NO": 999, "REV_AT_EPOCH": 83276, "BSTAR": 2.9226e-05, "MEAN_MOTION_DOT": 5.2e-07, "MEAN_MOTION_DDOT": 0}, "tle": {"line1": "1 35635U 09039A   25355.83158147  .00000052  00000+0  29226-4 0  9991", "line2": "2 35635  82.9556 161.7527 0020168  49.3294  70.1210 13.89929630832763"}}, "geometry": {"type": "Point", "coordinates": [163.15332260031192, 13.584012694071971]}}, {"type": "Feature", "properties": {"norad_id": 36519, "name": "COSMOS 2463", "group": "musson", "lat": 30.368737174204153, "lon": -164.42267208836475, "alt_km": 1001.313727055307, "timestamp": "2025-12-22T05:49:03.769311+00:00", "meta": {"OBJECT_NAME": "COSMOS 2463", "OBJECT_ID": "2010-017A", "EPOCH": "2025-12-21T19:25:55.588224", "MEAN_MOTION": 13.71649902, "ECCENTRICITY": 0.0034759, "INCLINATION": 82.9604, "RA_OF_ASC_NODE": 20.0472, "ARG_OF_PERICENTER": 261.9663, "MEAN_ANOMALY": 272.0747, "EPHEMERIS_TYPE": 0, "CLASSIFICATION_TYPE": "U", "NORAD_CAT_ID": 36519, "ELEMENT_SET_NO": 999, "REV_AT_EPOCH": 78361, "BSTAR": 3.842e-05, "MEAN_MOTION_DOT": 5e-07, "MEAN_MOTION_DDOT": 0}, "tle": {"line1": "1 36519U 10017A   25355.80967116  .00000050  00000+0  38420-4 0  9996", "line2": "2 36519  82.9604  20.0472 0034759 261.9663 272.0747 13.71649902783617"}}, "geometry": {"type": "Point", "coordinates": [-164.42267208836475, 30.368737174204153]}}]}